NORAD_CAT_ID,OBJECT_NAME,OBJECT_TYPE,EPOCH,MEAN_MOTION,ECCENTRICITY,INCLINATION,RA_OF_ASC_NODE,ARG_OF_PERICENTER,MEAN_ANOMALY,BSTAR,MEAN_MOTION_DOT,MEAN_MOTION_DDOT,TLE_LINE0,TLE_LINE1,TLE_LINE2,SEMIMAJOR_AXIS,PERIOD,APOGEE,PERIGEE,DECAYED
50207.0,STARLINK-3262,PAYLOAD,2021-12-23 16:00:00,15.98832571,0.0066989999999999,53.218,341.4622,172.273,45.6032,-0.0013019,-0.00830055,0.00023449,0 STARLINK-3262,1 50207U 21125BD  21357.66667824 -.00830055  23449-3 -13019-2 0  9992,2 50207  53.2180 341.4622 0066990 172.2730  45.6032 15.98832571  2099,6655.794,90.066,322.246,233.072,0.0
50207.0,STARLINK-3262,PAYLOAD,2021-12-24 06:00:00,15.97852379,0.0061326,53.2173,338.4681,174.3882,161.9871,-0.001596,-0.00917647,0.000278,0 STARLINK-3262,1 50207U 21125BD  21358.25001157 -.00917647  27800-3 -15960-2 0  9994,2 50207  53.2173 338.4681 0061326 174.3882 161.9871 15.97852379  2181,6658.515,90.121,321.214,239.546,0.0
50207.0,STARLINK-3262,PAYLOAD,2021-12-24 14:00:01,15.97256192,0.0058488,53.2174,336.7576,175.6749,278.8892,-0.0016434999999999,-0.00894519,0.00026384,0 STARLINK-3262,1 50207U 21125BD  21358.58334491 -.00894519  26384-3 -16435-2 0  9996,2 50207  53.2174 336.7576 0058488 175.6749 278.8892 15.97256192  1425,6660.172,90.155,320.991,243.083,0.0
50207.0,STARLINK-3262,PAYLOAD,2021-12-24 22:00:00,15.96654352,0.0055238,53.2177,335.0478,177.0047,35.0465,-0.0016737,-0.00861549,0.00024505,0 STARLINK-3262,1 50207U 21125BD  21358.91667824 -.00861549  24505-3 -16737-2 0  9997,2 50207  53.2177 335.0478 0055238 177.0047  35.0465 15.96654352  2281,6661.846,90.189,320.509,246.912,0.0
50207.0,STARLINK-3262,PAYLOAD,2021-12-25 06:00:00,15.96094206,0.0051492,53.2176,333.3433,178.9582,149.8598,-0.0018809,-0.00916437,0.00027232,0 STARLINK-3262,1 50207U 21125BD  21359.25001157 -.00916437  27232-3 -18809-2 0  9995,2 50207  53.2176 333.3433 0051492 178.9582 149.8598 15.96094206  2348,6663.404,90.22,319.58,250.958,0.0
50207.0,STARLINK-3262,PAYLOAD,2021-12-25 14:00:01,15.95503625,0.0049198,53.2173,331.63699999999994,180.8354,264.057,-0.0019451,-0.00904918,0.00026457,0 STARLINK-3262,1 50207U 21125BD  21359.58334491 -.00904918  26457-3 -19451-2 0  9994,2 50207  53.2173 331.6370 0049198 180.8354 264.0570 15.95503625  2399,6665.0480000000025,90.254,319.704,254.123,0.0
50207.0,STARLINK-3262,PAYLOAD,2021-12-25 22:00:00,15.94898681,0.0045872,53.2175,329.9318,182.0475,18.2207,-0.0019552,-0.00864844,0.00024234,0 STARLINK-3262,1 50207U 21125BD  21359.91667824 -.00864844  24234-3 -19552-2 0  9996,2 50207  53.2175 329.9318 0045872 182.0475  18.2207 15.94898681  2446,6666.734,90.288,319.18,258.017,0.0
50207.0,STARLINK-3262,PAYLOAD,2021-12-26 06:00:02,15.94334084,0.0042538,53.2176,328.2315,184.2266,130.7645,-0.0021602,-0.00911399,0.00026484,0 STARLINK-3262,1 50207U 21125BD  21360.25002315 -.00911399  26484-3 -21602-2 0  9999,2 50207  53.2176 328.2315 0042538 184.2266 130.7645 15.94334084  2509,6668.308000000001,90.32,318.538,261.807,0.0
50207.0,STARLINK-3262,PAYLOAD,2021-12-26 14:00:01,15.93749353,0.0040078,53.2174,326.5294,186.2553,242.63,-0.0022576,-0.0091273,0.00026399,0 STARLINK-3262,1 50207U 21125BD  21360.58334491 -.00912730  26399-3 -22576-2 0  9994,2 50207  53.2174 326.5294 0040078 186.2553 242.6300 15.93749353  2556,6669.938,90.353,318.535,265.072,0.0
50207.0,STARLINK-3262,PAYLOAD,2021-12-26 22:00:00,15.93142517,0.0037184,53.2175,324.8289,187.9806,354.1685,-0.0022431,-0.00867984,0.00023967,0 STARLINK-3262,1 50207U 21125BD  21360.91667824 -.00867984  23967-3 -22431-2 0  9998,2 50207  53.2175 324.8289 0037184 187.9806 354.1685 15.93142517  2605,6671.632,90.387,318.305,268.689,0.0
50207.0,STARLINK-3262,PAYLOAD,2021-12-27 06:00:00,15.92572506,0.003405,53.2174,323.1332,190.6603,104.0349,-0.0024347,-0.009033,0.00025609,0 STARLINK-3262,1 50207U 21125BD  21361.25001157 -.00903300  25609-3 -24347-2 0  9993,2 50207  53.2174 323.1332 0034050 190.6603 104.0349 15.92572506  2669,6673.224,90.42,317.811,272.367,0.0
50207.0,STARLINK-3262,PAYLOAD,2021-12-27 12:00:00,15.9213135,0.0032434,53.2173,321.8599,192.8462,95.8022,-0.0024945,-0.00899268,0.00025293,0 STARLINK-3262,1 50207U 21125BD  21361.50001157 -.00899268  25293-3 -24945-2 0  9991,2 50207  53.2173 321.8599 0032434 192.8462  95.8022 15.92131350  2707,6674.456999999999,90.445,317.97,274.67400000000004,0.0
50207.0,STARLINK-3262,PAYLOAD,2021-12-27 14:00:01,15.91996094,0.0031829,53.2175,321.4352,193.2611,213.2797,-0.0025814,-0.00921987,0.00026423,0 STARLINK-3262,1 50207U 21125BD  21361.58334491 -.00921987  26423-3 -25814-2 0  9995,2 50207  53.2175 321.4352 0031829 193.2611 213.2797 15.91996094  1909,6674.835,90.452,317.945,275.454,0.0
50207.0,STARLINK-3262,PAYLOAD,2021-12-27 22:00:00,15.91389412,0.0028892,53.2178,319.7392,195.453,322.2395,-0.0025575,-0.00877568,0.00024029,0 STARLINK-3262,1 50207U 21125BD  21361.91667824 -.00877568  24029-3 -25575-2 0  9990,2 50207  53.2178 319.7392 0028892 195.4530 322.2395 15.91389412  2766,6676.531,90.487,317.686,279.106,0.0
50207.0,STARLINK-3262,PAYLOAD,2021-12-28 06:00:00,15.90809603,0.0026007,53.2176,318.0478,198.8764,69.2532,-0.0027006,-0.00892227,0.0002462,0 STARLINK-3262,1 50207U 21125BD  21362.25001157 -.00892227  24620-3 -27006-2 0  9996,2 50207  53.2176 318.0478 0026007 198.8764  69.2532 15.90809603  2829,6678.153,90.52,317.386,282.65,0.0
50207.0,STARLINK-3262,PAYLOAD,2021-12-28 14:00:01,15.90239859,0.0024061,53.2174,316.3541,201.9933,175.8676,-0.0028979,-0.00925103,0.00026138,0 STARLINK-3262,1 50207U 21125BD  21362.58334491 -.00925103  26138-3 -28979-2 0  9998,2 50207  53.2174 316.3541 0024061 201.9933 175.8676 15.90239859  2879,6679.748000000001,90.552,317.685,285.541,0.0
50207.0,STARLINK-3262,PAYLOAD,2021-12-28 22:00:00,15.89637391,0.002111,53.2175,314.6626,205.271,281.6281,-0.0028924,-0.00890142,0.00024243,0 STARLINK-3262,1 50207U 21125BD  21362.91667824 -.00890142  24243-3 -28924-2 0  9993,2 50207  53.2175 314.6626 0021110 205.2710 281.6281 15.89637391  2922,6681.436,90.587,317.405,289.196,0.0
50207.0,STARLINK-3262,PAYLOAD,2021-12-29 06:00:02,15.89047425,0.0018341,53.2177,312.9754,210.5789,24.7147,-0.0029687,-0.00882369,0.0002373,0 STARLINK-3262,1 50207U 21125BD  21363.25002315 -.00882369  23730-3 -29687-2 0  9998,2 50207  53.2177 312.9754 0018341 210.5789  24.7147 15.89047425  2980,6683.089,90.62,317.212,292.697,0.0
50207.0,STARLINK-3262,PAYLOAD,2021-12-29 14:00:01,15.88479893,0.0016633,53.2176,311.2858,216.3673,126.545,-0.0031964,-0.00920472,0.00025475,0 STARLINK-3262,1 50207U 21125BD  21363.58335648 -.00920472  25475-3 -31964-2 0  9999,2 50207  53.2176 311.2858 0016633 216.3673 126.5450 15.88479893  3036,6684.681,90.653,317.665,295.427,0.0
50207.0,STARLINK-3262,PAYLOAD,2021-12-29 21:37:22,15.88287658,0.0017573,53.2204,309.6799,219.168,140.8076,-0.0013148,-0.00378471,5.498600000000001e-05,0 STARLINK-3262,1 50207U 21125BD  21363.90096017 -.00378471  54986-4 -13148-2 0  9999,2 50207  53.2204 309.6799 0017573 219.1680 140.8076 15.88287658  3080,6685.22,90.664,318.833,295.338,0.0
50207.0,STARLINK-3262,PAYLOAD,2021-12-29 22:00:00,15.87889576,0.0014149,53.2176,309.5992,223.483,226.2845,-0.0032673,-0.00910565,0.00024845,0 STARLINK-3262,1 50207U 21125BD  21363.91667824 -.00910565  24845-3 -32673-2 0  9990,2 50207  53.2176 309.5992 0014149 223.4830 226.2845 15.87889576  3082,6686.3380000000025,90.686,317.663,298.742,0.0
50207.0,STARLINK-3262,PAYLOAD,2021-12-30 06:00:00,15.87288395,0.0012189,53.2175,307.9163,232.3866,323.6008,-0.0032562,-0.00806141,0.0,0 STARLINK-3262,1 50207U 21125BD  21364.25001157 -.00806141  00000-0 -32562-2 0  9994,2 50207  53.2175 307.9163 0012189 232.3866 323.6008 15.87288395  3134,6688.026,90.721,318.043,301.7390000000001,0.0
50207.0,STARLINK-3262,PAYLOAD,2021-12-30 14:00:01,15.86596322,0.0010382,53.2182,306.2314,246.1196,55.4368,-0.00275,-0.00666473,0.0,0 STARLINK-3262,1 50207U 21125BD  21364.58334491 -.00666473  00000-0 -27500-2 0  9998,2 50207  53.2182 306.2314 0010382 246.1196  55.4368 15.86596322  2380,6689.971,90.76,318.781,304.89,0.0
50207.0,STARLINK-3262,PAYLOAD,2021-12-30 21:48:20,15.86542294,0.0011367,53.2206,304.5922,245.5494,114.4347,-0.00091633,-0.00232854,0.0,0 STARLINK-3262,1 50207U 21125BD  21364.90857607 -.00232854  00000-0 -91633-3 0  9994,2 50207  53.2206 304.5922 0011367 245.5494 114.4347 15.86542294  3249,6690.123000000001,90.763,319.592,304.383,0.0
50207.0,STARLINK-3262,PAYLOAD,2021-12-30 22:00:01,15.8613834,0.0009298,53.2178,304.5487,257.6978,148.6689,-0.0036325,-0.00842969,0.0,0 STARLINK-3262,1 50207U 21125BD  21364.91668981 -.00842969  00000-0 -36325-2 0  9990,2 50207  53.2178 304.5487 0009298 257.6978 148.6689 15.86138340  3245,6691.2580000000025,90.787,319.345,306.902,0.0
50207.0,STARLINK-3262,PAYLOAD,2021-12-31 14:00:01,15.84949502,0.0005087,53.2175,301.1889,268.4469,345.3629,-0.0037078,-0.00811588,0.0,0 STARLINK-3262,1 50207U 21125BD  21365.58334491 -.00811588  00000-0 -37078-2 0  9999,2 50207  53.2175 301.1889 0005087 268.4469 345.3629 15.84949502  2548,6694.604,90.855,319.874,313.063,0.0
50207.0,STARLINK-3262,PAYLOAD,2021-12-31 22:00:00,15.8436497,0.0005132,53.2175,299.5113,213.8482,142.6568,-0.0038249,-0.00813699,0.0,0 STARLINK-3262,1 50207U 21125BD  21365.91667824 -.00813699  00000-0 -38249-2 0  9991,2 50207  53.2175 299.5113 0005132 213.8482 142.6568 15.84364970  2605,6696.25,90.888,321.552,314.6790000000001,0.0
50207.0,STARLINK-3262,PAYLOAD,2022-01-01 12:00:00,15.83350861,6.720000000000001e-05,53.2176,296.579,146.7437,297.7806,-0.0041226,-0.00831607,0.0,0 STARLINK-3262,1 50207U 21125BD  22001.50001157 -.00831607  00000-0 -41226-2 0  9993,2 50207  53.2176 296.5790 0000672 146.7437 297.7806 15.83350861  3490,6699.109,90.946,321.425,320.524,0.0
50207.0,STARLINK-3262,PAYLOAD,2022-01-01 14:00:01,15.83199303,0.0001192,53.2177,296.1599,140.0187,59.8296,-0.0041078,-0.00823596,0.0,0 STARLINK-3262,1 50207U 21125BD  22001.58335648 -.00823596  00000-0 -41078-2 0  9999,2 50207  53.2177 296.1599 0001192 140.0187  59.8296 15.83199303  2717,6699.5369999999975,90.955,322.2,320.603,0.0
